{"type": "FeatureCollection", "features": [ {"type": "Feature", "properties": {"norad_id": 65942, "name": "BOTAN", "group": "stations", "lat": -7.1395716084716065, "lon": 169.5385950455297, "alt_km": 388.9711260126214, "timestamp": "2025-12-05T14:45:14.120799+00:00", "meta": {"OBJECT_NAME": "BOTAN", "OBJECT_ID": "1998-067XP", "EPOCH": "2025-12-04T15:44:42.289728", "MEAN_MOTION": 15.60784931, "ECCENTRICITY": 0.00042645, "INCLINATION": 51.6268, "RA_OF_ASC_NODE": 180.0664, "ARG_OF_PERICENTER": 180.2775, "MEAN_ANOMALY": 179.8217, "EPHEMERIS_TYPE": 0, "CLASSIFICATION_TYPE": "U", "NORAD_CAT_ID": 65942, "ELEMENT_SET_NO": 999, "REV_AT_EPOCH": 860, "BSTAR": 0.0017279415, "MEAN_MOTION_DOT": 0.00149041, "MEAN_MOTION_DDOT": 0}, "tle": {"line1": "1 65942U 98067XP  25338.65604502  .00149041  00000+0  17279-2 0  9991", "line2": "2 65942  51.6268 180.0664 0004264 180.2775 179.8217 15.60784931  8600"}}, "geometry": {"type": "Point", "coordinates": [169.5385950455297, -7.1395716084716065]}}, {"type": "Feature", "properties": {"norad_id": 65943, "name": "E-KAGAKU-1", "group": "stations", "lat": 50.075478621708136, "lon": -75.47191227362565, "alt_km": 384.911488522589, "timestamp": "2025-12-05T14:45:14.120810+00:00", "meta": {"OBJECT_NAME": "E-KAGAKU-1", "OBJECT_ID": "1998-067XQ", "EPOCH": "2025-12-02T21:39:34.941600", "MEAN_MOTION": 15.57714998, "ECCENTRICITY": 0.00035202, "INCLINATION": 51.6296, "RA_OF_ASC_NODE": 189.358, "ARG_OF_PERICENTER": 147.4331, "MEAN_ANOMALY": 212.6879, "EPHEMERIS_TYPE": 0, "CLASSIFICATION_TYPE": "U", "NORAD_CAT_ID": 65943, "ELEMENT_SET_NO": 999, "REV_AT_EPOCH": 832, "BSTAR": 0.00096701912, "MEAN_MOTION_DOT": 0.00073283, "MEAN_MOTION_DDOT": 0}, "tle": {"line1": "1 65943U 98067XQ  25336.90248775  .00073283  00000+0  96702-3 0  9997", "line2": "2 65943  51.6296 189.3580 0003520 147.4331 212.6879 15.57714998  8329"}}, "geometry": {"type": "Point", "coordinates": [-75.47191227362565, 50.075478621708136]}}, {"type": "Feature", "properties": {"norad_id": 66052, "name": "HRC MONOBLOCK CAMERA", "group": "stations", "lat": -26.924243227700423, "lon": 20.740515188980538, "alt_km": 408.6003602582341, "timestamp": "2025-12-05T14:45:14.120820+00:00", "meta": {"OBJECT_NAME": "HRC MONOBLOCK CAMERA", "OBJECT_ID": "1998-067XR", "EPOCH": "2025-12-04T14:40:20.041248", "MEAN_MOTION": 15.53353663, "ECCENTRICITY": 0.0004308, "INCLINATION": 51.6287, "RA_OF_ASC_NODE": 182.0122, "ARG_OF_PERICENTER": 151.4621, "MEAN_ANOMALY": 208.6606, "EPHEMERIS_TYPE": 0, "CLASSIFICATION_TYPE": "U", "NORAD_CAT_ID": 66052, "ELEMENT_SET_NO": 999, "REV_AT_EPOCH": 757, "BSTAR": 0.00089797, "MEAN_MOTION_DOT": 0.00057752, "MEAN_MOTION_DDOT": 0}, "tle": {"line1": "1 66052U 98067XR  25338.61134307  .00057752  00000+0  89797-3 0  9993", "line2": "2 66052  51.6287 182.0122 0004308 151.4621 208.6606 15.53353663  7578"}}, "geometry": {"type": "Point", "coordinates": [20.740515188980538, -26.924243227700423]}}, {"type": "Feature", "properties": {"norad_id": 66174, "name": "HTV-X1", "group": "stations", "lat": -29.997686694738057, "lon": 24.971809177303115, "alt_km": 419.94303179604776, "timestamp": "2025-12-05T14:45:14.120831+00:00", "meta": {"OBJECT_NAME": "HTV-X1", "OBJECT_ID": "2025-241A", "EPOCH": "2025-12-04T13:02:29.700384", "MEAN_MOTION": 15.49306035, "ECCENTRICITY": 0.00035956, "INCLINATION": 51.6299, "RA_OF_ASC_NODE": 183.0583, "ARG_OF_PERICENTER": 202.7086, "MEAN_ANOMALY": 157.3744, "EPHEMERIS_TYPE": 0, "CLASSIFICATION_TYPE": "U", "NORAD_CAT_ID": 66174, "ELEMENT_SET_NO": 999, "REV_AT_EPOCH": 51, "BSTAR": 0.00029317999, "MEAN_MOTION_DOT": 0.0001591, "MEAN_MOTION_DDOT": 0}, "tle": {"line1": "1 66174U 25241A   25338.54339931  .00015910  00000+0  29318-3 0  9997", "line2": "2 66174  51.6299 183.0583 0003595 202.7086 157.3744 15.49306035   516"}}, "geometry": {"type": "Point", "coordinates": [24.971809177303115, -29.997686694738057]}}, {"type": "Feature", "properties": {"norad_id": 66515, "name": "SZ-21 MODULE", "group": "stations", "lat": -37.21891103690474, "lon": -61.21223892313506, "alt_km": 381.18935131834314, "timestamp": "2025-12-05T14:45:14.120843+00:00", "meta": {"OBJECT_NAME": "SZ-21 MODULE", "OBJECT_ID": "2025-246C", "EPOCH": "2025-12-04T13:09:11.346336", "MEAN_MOTION": 15.61898737, "ECCENTRICITY": 0.000593, "INCLINATION": 41.4775, "RA_OF_ASC_NODE": 65.9946, "ARG_OF_PERICENTER": 213.3987, "MEAN_ANOMALY": 146.6479, "EPHEMERIS_TYPE": 0, "CLASSIFICATION_TYPE": "U", "NORAD_CAT_ID": 66515, "ELEMENT_SET_NO": 999, "REV_AT_EPOCH": 316, "BSTAR": 0.00052183, "MEAN_MOTION_DOT": 0.00046665, "MEAN_MOTION_DDOT": 0}, "tle": {"line1": "1 66515U 25246C   25338.54804799  .00046665  00000+0  52183-3 0  9997", "line2": "2 66515  41.4775  65.9946 0005930 213.3987 146.6479 15.61898737  3164"}}, "geometry": {"type": "Point", "coordinates": [-61.21223892313506, -37.21891103690474]}}, {"type": "Feature", "properties": {"norad_id": 66645, "name": "SHENZHOU-22", "group": "stations", "lat": 35.75551704781788, "lon": 114.56880307211622, "alt_km": 384.9918912357507, "timestamp": "2025-12-05T14:45:14.120856+00:00", "meta": {"OBJECT_NAME": "SHENZHOU-22", "OBJECT_ID": "2025-272A", "EPOCH": "2025-12-04T15:25:24.990240", "MEAN_MOTION": 15.58669844, "ECCENTRICITY": 0.00099747, "INCLINATION": 41.4682, "RA_OF_ASC_NODE": 65.8455, "ARG_OF_PERICENTER": 328.5002, "MEAN_ANOMALY": 31.5238, "EPHEMERIS_TYPE": 0, "CLASSIFICATION_TYPE": "U", "NORAD_CAT_ID": 66645, "ELEMENT_SET_NO": 999, "REV_AT_EPOCH": 26279, "BSTAR": 0.00047697443, "MEAN_MOTION_DOT": 0.00037639, "MEAN_MOTION_DDOT": 0}, "tle": {"line1": "1 66645U 25272A   25338.64265035  .00037639  00000+0  47697-3 0  9990", "line2": "2 66645  41.4682  65.8455 0009974 328.5002  31.5238 15.58669844262790"}}, "geometry": {"type": "Point", "coordinates": [114.56880307211622, 35.75551704781788]}}, {"type": "Feature", "properties": {"norad_id": 66646, "name": "CZ-2F R/B", "group": "stations", "lat": 14.383258396198563, "lon": 72.24679110343203, "alt_km": 307.81135606160296, "timestamp": "2025-12-05T14:45:14.120867+00:00", "meta": {"OBJECT_NAME": "CZ-2F R/B", "OBJECT_ID": "2025-272B", "EPOCH": "2025-11-26T11:17:54.506400", "MEAN_MOTION": 16.01945612, "ECCENTRICITY": 0.01210796, "INCLINATION": 41.4431, "RA_OF_ASC_NODE": 114.9009, "ARG_OF_PERICENTER": 133.7676, "MEAN_ANOMALY": 227.3272, "EPHEMERIS_TYPE": 0, "CLASSIFICATION_TYPE": "U", "NORAD_CAT_ID": 66646, "ELEMENT_SET_NO": 999, "REV_AT_EPOCH": 21, "BSTAR": 0.00029319366, "MEAN_MOTION_DOT": 0.00449059, "MEAN_MOTION_DDOT": 7.567612e-06}, "tle": {"line1": "1 66646U 25272B   25330.47076975  .00449059  75676-5  29319-3 0  9998", "line2": "2 66646  41.4431 114.9009 0121079 133.7676 227.3272 16.01945612   217"}}, "geometry": {"type": "Point", "coordinates": [72.24679110343203, 14.383258396198563]}}, {"type": "Feature", "properties": {"norad_id": 66664, "name": "SOYUZ-MS 28", "group": "stations", "lat": -29.997690553617666, "lon": 24.971813757864563, "alt_km": 419.94236993966297, "timestamp": "2025-12-05T14:45:14.120877+00:00", "meta": {"OBJECT_NAME": "SOYUZ-MS 28", "OBJECT_ID": "2025-275A", "EPOCH": "2025-12-04T13:02:29.700384", "MEAN_MOTION": 15.49306035, "ECCENTRICITY": 0.0003596, "INCLINATION": 51.6299, "RA_OF_ASC_NODE": 183.0583, "ARG_OF_PERICENTER": 202.7086, "MEAN_ANOMALY": 157.3744, "EPHEMERIS_TYPE": 0, "CLASSIFICATION_TYPE": "U", "NORAD_CAT_ID": 66664, "ELEMENT_SET_NO": 999, "REV_AT_EPOCH": 117, "BSTAR": 0.00029318, "MEAN_MOTION_DOT": 0.0001591, "MEAN_MOTION_DDOT": 0}, "tle": {"line1": "1 66664U 25275A   25338.54339931  .00015910  00000+0  29318-3 0  9998", "line2": "2 66664  51.6299 183.0583 0003596 202.7086 157.3744 15.49306035  1174"}}, "geometry": {"type": "Point", "coordinates": [24.971813757864563, -29.997690553617666]}}]}